METHANESAT              
1 59101U 24043D   26071.33071916  .00003161  00000+0  27537-3 0  9992
2 59101  97.8283 202.0166 0009960 340.9346  19.1502 14.97606182110155
GOSAT-GW (IBUKI GW)     
1 64694U 25141A   26065.03170321  .00001373  00000+0  25032-3 0  9996
2 64694  98.0504   4.0681 0001432  83.7436 276.3932 14.67569112 36718
GHGSAT-C1               
1 46278U 20061G   26071.28863791  .00033235  00000+0  34380-3 0  9992
2 46278  97.2155 153.7037 0001969  72.5999 287.5476 15.64669870308293
GHGSAT-C12              
1 64529U 25135B   26071.27540418  .00004975  00000+0  23692-3 0  9998
2 64529  97.4618 187.0585 0006009 140.3652 219.8023 15.19583020 40107
GHGSAT-C13              
1 64548U 25135W   26071.25831882  .00004726  00000+0  22088-3 0  9997
2 64548  97.4645 187.4690 0002699  93.6481 266.5063 15.20271517 40122
GHGSAT-C2               
1 47509U 21006DA  26071.09193581  .00007983  00000+0  22578-3 0  9999
2 47509  97.2294 120.0267 0006290 143.9682 216.1988 15.36562799284932
GHGSAT-C3               
1 52737U 22057F   26071.28754903  .00009170  00000+0  29008-3 0  9992
2 52737  97.6430 213.4951 0007329 105.3827 254.8225 15.32989895210681
GHGSAT-C4               
1 52746U 22057Q   26071.30718789  .00008996  00000+0  28471-3 0  9995
2 52746  97.6356 212.4451 0007510  92.9961 267.2140 15.32979523210696
GHGSAT-C5               
1 52744U 22057N   26071.32507141  .00008658  00000+0  27417-3 0  9997
2 52744  97.6521 214.9948 0008304 102.5603 257.6568 15.32968354210696
GHGSAT-C6               
1 56204U 23054AC  26071.25363858  .00016946  00000+0  30343-3 0  9998
2 56204  97.3119 339.5976 0008888  46.5659 313.6331 15.49995929163426
GHGSAT-C7               
1 56209U 23054AH  26071.28633877  .00013320  00000+0  25867-3 0  9995
2 56209  97.3074 338.5472 0009195  40.3744 319.8188 15.47715809163399
GHGSAT-C8               
1 56186U 23054J   26071.28942590  .00017280  00000+0  30921-3 0  9990
2 56186  97.3082 339.0220 0007295  67.4050 292.7972 15.50024786163412
SENTINEL-5P             
1 42969U 17064A   26071.28302723  .00000106  00000+0  71469-4 0  9998
2 42969  98.7878  14.1222 0001102  90.5310 269.5992 14.19499188435810
ENMAP                   
1 52159U 22033C   26071.29153140  .00000400  00000+0  66892-4 0  9991
2 52159  97.9788 154.9174 0001067  95.7265 264.4066 14.74971385212373
PRISMA                  
1 44072U 19015A   26071.29446887  .00001207  00000+0  15262-3 0  9995
2 44072  97.8705 147.4834 0001458  89.5354 270.6027 14.83642514377681
SENTINEL-2A             
1 40697U 15028A   26071.29166597  .00003725  00000+0  14372-2 0  9998
2 40697  98.5644 147.5469 0001251 100.9473 259.1851 14.30817831559874
SENTINEL-2B             
1 42063U 17013A   26071.28440619 -.00000098  00000+0 -20910-4 0  9991
2 42063  98.5647 147.4405 0001123  94.9934 265.1377 14.30820468470789
SENTINEL-2C             
1 60989U 24157A   26071.17956169  .00000159  00000+0  77289-4 0  9992
2 60989  98.5684 147.3560 0000801 106.5244 253.6027 14.30815378 79114
LANDSAT 8               
1 39084U 13008A   26071.26979838  .00000478  00000+0  11610-3 0  9994
2 39084  98.1912 142.9531 0001276  91.0366 269.0979 14.57113637683784
LANDSAT 9               
1 49260U 21088A   26071.16694565  .00000496  00000+0  12007-3 0  9999
2 49260  98.1936 142.9134 0001067  93.5659 266.5661 14.57128151236877
TANAGER-1               
1 60507U 24149AR  26071.15664994  .00020504  00000+0  45714-3 0  9992
2 60507  97.3756 164.5708 0007429 224.3933 135.6720 15.43584864 88060
